ENDUROSAT ONE           
1 43551U 98067NZ  20193.16953146  .00043404  00000-0  19478-3 0  9995
2 43551  51.6318 155.4665 0002196 128.8461 231.2739 15.83678357114134
EQUISAT                 
1 43552U 98067PA  20193.34086406  .00020134  00000-0  13395-3 0  9999
2 43552  51.6323 165.8067 0002728 164.2180 195.8905 15.75414979113975
AEROCUBE 12A            
1 43556U 18046C   20193.14933718  .00000116  00000-0  16343-4 0  9992
2 43556  51.6432 351.6970 0008407  25.3320 334.8071 15.29861052111009
AEROCUBE 12B            
1 43557U 18046D   20193.14927657  .00000014  00000-0  12942-4 0  9996
2 43557  51.6432 352.4338 0008470  24.8146 335.3240 15.29571097110940
UITMSAT-1               
1 43589U 98067PD  20193.19085457  .00028656  00000-0  16335-3 0  9991
2 43589  51.6328 163.8596 0001425 174.4871 185.6146 15.78689384109727
MAYA-1                  
1 43590U 98067PE  20192.23423311  .00027380  00000-0  15667-3 0  9992
2 43590  51.6283 168.7048 0001522 152.9480 207.1601 15.78631568109503
BHUTAN-1                
1 43591U 98067PF  20193.34353061  .00030140  00000-0  17012-3 0  9994
2 43591  51.6344 162.7080 0001456 175.2651 184.8364 15.78880694109688
SIRIUSSAT-1             
1 43595U 98067PG  20193.12325227  .00022330  00000-0  14478-3 0  9992
2 43595  51.6287 169.4397 0001928 102.8492 257.2724 15.75933176108759
SIRIUSSAT-2             
1 43596U 98067PH  20193.12332764  .00023009  00000-0  14980-3 0  9999
2 43596  51.6282 170.2673 0002079 104.9445 255.1785 15.75817485108748
TANUSHA-3               
1 43597U 98067PJ  20193.46153216  .00080454  00000-0  26530-3 0  9991
2 43597  51.6261 152.6911 0003059  86.1258 274.0097 15.89738107109001
SURFSAT                 
1 43614U 18070B   20193.20012395  .00001712  00000-0  44076-4 0  9997
2 43614  93.0214 164.4033 0012547 240.6403 119.3598 15.39282341102139
CP7 (DAVE)              
1 43615U 18070C   20193.16881575  .00001640  00000-0  42426-4 0  9994
2 43615  93.0216 164.3794 0012711 240.3049 119.6941 15.39131543102122
ELFIN-B                 
1 43616U 18070D   20193.18821536  .00002491  00000-0  61491-4 0  9996
2 43616  93.0179 164.3375 0012986 241.6668 118.3278 15.40522200102171
ELFIN-A                 
1 43617U 18070E   20192.82890171  .00002391  00000-0  58670-4 0  9992
2 43617  93.0231 164.7202 0012369 239.0079 120.9962 15.40713538102126
CUBEBEL-1 (BSUSAT-1)    
1 43666U 18083E   20193.56755022  .00000574  00000-0  31292-4 0  9999
2 43666  97.4868 219.7929 0013269 277.7123 233.6692 15.18298805 94278
CICERO 10               
1 43690U 18088A   20192.92593492  .00000556  00000-0  23739-4 0  9998
2 43690  85.0372  62.8572 0013301 217.1696 142.8625 15.20259217 92327
IRVINE01                
1 43693U 18088D   20192.88387152  .00001501  00000-0  62021-4 0  9998
2 43693  85.0344  61.5033 0016638 198.1803 161.8847 15.22953823 92414
PROXIMA I               
1 43694U 18088E   20193.35153594  .00000622  00000-0  25357-4 0  9997
2 43694  85.0313  61.0481 0018582 188.8448 171.2469 15.22004171 92478
PROXIMA II              
1 43696U 18088G   20192.88949891  .00000614  00000-0  24967-4 0  9996
2 43696  85.0315  61.3576 0018565 190.5270 169.5586 15.22005392 92403
FACSAT-1                
1 43721U 18096C   20193.45317346  .00000947  00000-0  38089-4 0  9991
2 43721  97.4197 266.8971 0018603  42.5401 317.7276 15.27280562 90054
CENTAURI-2              
1 43722U 18096D   20192.75008345  .00001194  00000-0  46527-4 0  9991
2 43722  97.4210 266.4958 0018654  44.6592 315.6146 15.27820099 89957
INNOSAT-2               
1 43738U 18096V   20193.52174642  .00001645  00000-0  58084-4 0  9990
2 43738  97.4230 269.3341 0024451  47.3463 312.9832 15.30431279 90218
SIRION PATHFINDER-2     
1 43759U 18099B   20193.46814467  .00000261  00000-0  28850-4 0  9996
2 43759  97.7041 264.7178 0015800 102.3785 257.9205 14.95285912 87521
CORVUS-BC 4             
1 43767U 18099K   20193.15044673  .00000441  00000-0  45792-4 0  9999
2 43767  97.7024 263.7908 0013363 106.4892 253.7798 14.94733762 87449
MOVE-II                 
1 43780U 18099Y   20193.47924919  .00000754  00000-0  73262-4 0  9999
2 43780  97.7052 264.6666 0015163 112.7498 247.5327 14.95421509 87508
SPACEBEE-7              
1 43816U 18099BL  20193.48079922  .00000702  00000-0  68051-4 0  9998
2 43816  97.7065 265.0743 0015114  98.7661 261.5272 14.95711559 87089
SPACEBEE-5              
1 43817U 18099BM  20193.15669462  .00001147  00000-0  10627-3 0  9996
2 43817  97.7121 265.2396 0015052  99.9437 260.3484 14.96348022 87055
SPACEBEE-6              
1 43818U 18099BN  20193.17354019 -.00000005  00000-0  46990-5 0  9995
2 43818  97.7082 264.9229 0014948  99.0273 261.2641 14.95910975 87196
SHIELDS 1               
1 43850U 18104B   20192.42030983  .00000373  00000-0  14759-4 0  9990
2 43850  85.0301 160.1743 0014561 355.3188   4.7915 15.21404181 86963
STF-1                   
1 43852U 18104D   20193.15832509  .00000773  00000-0  32665-4 0  9997
2 43852  85.0343 160.2434 0014817   7.4808 352.6651 15.21322007 87056
ZACUBE-2                
1 43907U 18111AH  20193.53982209  .00000353  00000-0  17031-4 0  9995
2 43907  97.2634  92.5767 0023080  60.8596 299.4948 15.24609325 85688
LUME 1                  
1 43908U 18111AJ  20192.99747080  .00000697  00000-0  30496-4 0  9992
2 43908  97.2636  92.2377 0022872  62.1469 298.2082 15.25074771 85618
AOBA VELOX-IV           
1 43940U 19003J   20193.13090120  .00001263  00000-0  52869-4 0  9990
2 43940  97.2261 243.5961 0025075 136.6554 223.6662 15.25078721 82250
CATSAT-2                
1 44029U 98067PV  20192.74009515  .00007394  00000-0  76733-4 0  9997
2 44029  51.6371 197.9541 0002913 162.3838 197.7259 15.65828784 82178
DELPHINI                
1 44030U 98067PW  20193.38013969  .00012159  00000-0  11738-3 0  9996
2 44030  51.6328 193.1022 0002617 157.5402 202.5709 15.66928629 82263
UNITE                   
1 44031U 98067PX  20193.11575979  .00005408  00000-0  67528-4 0  9990
2 44031  51.6361 202.6751 0002587 149.6302 210.4842 15.61655825 82113
CATSAT-1                
1 44033U 98067PZ  20192.74000729  .00007789  00000-0  80535-4 0  9993
2 44033  51.6372 197.9605 0002892 160.8130 199.2975 15.65829250 82080
RAAVANA-1               
1 44329U 98067QE  20193.43736324  .00005627  00000-0  79440-4 0  9997
2 44329  51.6384 213.8826 0006137  87.7908 272.3787 15.58251484 60743
UGUISU                  
1 44330U 98067QF  20193.45119563  .00005624  00000-0  79676-4 0  9999
2 44330  51.6361 213.9650 0006179  86.8769 273.2930 15.58159945 60724
NEPALISAT-1             
1 44331U 98067QG  20192.78816744  .00005504  00000-0  77826-4 0  9992
2 44331  51.6359 217.0393 0006177  87.7446 272.4253 15.58261109 60636
SPOOQY-1                
1 44332U 98067QH  20193.11371398  .00005519  00000-0  78289-4 0  9992
2 44332  51.6371 215.4632 0005175  90.3953 269.7633 15.58167475 60642
SPACEBEE-9              
1 44370U 19037F   20193.48327990  .00005051  00000-0  11694-3 0  9990
2 44370  45.0079 341.3638 0013479 319.3896  40.5987 15.43702380 58319
SPACEBEE-8              
1 44371U 19037G   20192.84289804  .00009473  00000-0  18255-3 0  9993
2 44371  45.0078 338.2929 0011964 314.9316  45.0604 15.48162700 58296
IOD-1 GEMS              
1 44385U 98067QK  20192.67982457  .00010075  00000-0  12488-3 0  9995
2 44385  51.6383 215.6207 0003086  46.9091 313.2160 15.60723361 58116
MOVE-IIB                
1 44398U 19038N   20192.84240850  .00000825  00000-0  51006-4 0  9995
2 44398  97.5372 153.7768 0026638  49.4770 310.8775 15.12359048 56118
SONATE                  
1 44400U 19038Q   20192.81646227  .00000295  00000-0  20881-4 0  9992
2 44400  97.5411 153.7651 0026501  48.1900 312.1588 15.11972900 56100
LUCKY-7                 
1 44406U 19038W   20192.82803349  .00000427  00000-0  28303-4 0  9993
2 44406  97.5405 153.8882 0025954  47.8940 312.4491 15.12241071 56102
BEESAT 9                
1 44412U 19038AC  20193.42088470  .00000547  00000-0  35180-4 0  9991
2 44412  97.5397 154.4551 0024118  51.5929 308.7463 15.12327736 55894
JAISAT-1                
1 44419U 19038F   20193.16894445  .00000604  00000-0  37939-4 0  9994
2 44419  97.5398 154.4886 0023007  51.7148 308.6147 15.12811009 56186
SWIATOWID               
1 44426U 98067QL  20193.47510147  .00011218  00000-0  13313-3 0  9991
2 44426  51.6404 210.8444 0003826  44.0744 104.8440 15.61728764 58266
KRAKSAT                 
1 44427U 98067QM  20193.50709698  .00003796  00000-0  59970-4 0  9999
2 44427  51.6420 217.0673 0003915  48.0570 103.8251 15.56215907 58227
VCC A                   
1 44428U 98067QN  20192.79831231  .00005279  00000-0  76769-4 0  9992
2 44428  51.6383 218.6594 0003100  60.2160 299.9140 15.57592107 58148
ENTRYSAT                
1 44429U 98067QP  20193.32960206  .00006585  00000-0  90482-4 0  9997
2 44429  51.6373 214.6778 0002963  52.0182 308.1078 15.58656775 58244
VCC C                   
1 44430U 98067QQ  20193.09216037  .00008714  00000-0  11237-3 0  9995
2 44430  51.6367 214.6008 0002723  62.2496 297.8773 15.59879068 57046
VCC B                   
1 44431U 98067QR  20192.79738897  .00005341  00000-0  77456-4 0  9994
2 44431  51.6372 218.6371 0003250  59.6384 300.4929 15.57636931 58089
ATL-1                   
1 44830U 19084G   20193.40180277  .00050757  00000-0  25725-3 0  9993
2 44830  96.9697  62.8217 0025560 141.6152 218.6943 15.80890457 34233
SMOG-P                  
1 44832U 19084J   20192.93249784  .00065682  00000-0  30767-3 0  9996
2 44832  96.9702  62.5716 0024003 141.5518 218.7468 15.82597270 34174
DUCHIFAT-3              
1 44854U 19089C   20193.40664886  .00000215  00000-0  23794-4 0  9996
2 44854  36.9694 316.7945 0009307 265.1077  94.8607 14.99081813 31895
ORBITAL FACTORY 2 (OF-2)
1 45113U 19071C   20193.20693775  .00000626  00000-0  30660-4 0  9999
2 45113  51.6434 248.7963 0013289 141.8248 218.3678 15.33421461 24774
